{"type":"FeatureCollection","features":[{"type":"Feature","id":"way/393275898","properties":{"type":"way","id":393275898,"tags":{"addr:city":"Scanzano Jonico","addr:housenumber":"1","addr:postcode":"75020","addr:street":"Via Palmiro Togliatti","amenity":"place_of_worship","building":"yes","denomination":"catholic","name":"Parrocchia Maria Santissima Annunziata","phone":"+39 0835 952317","religion":"christian","website":"http://www.parrocchiamariassannunziata.it/"},"relations":[],"meta":{}},"geometry":{"type":"Polygon","coordinates":[[[16.7002911,40.2505796],[16.7006813,40.2504578],[16.7008275,40.2506339],[16.7009281,40.2507495],[16.700849,40.2507751],[16.7010823,40.2510003],[16.7008557,40.2511098],[16.7006787,40.2509215],[16.7005378,40.2509512],[16.7005285,40.2509174],[16.7005539,40.2509061],[16.7004158,40.2507035],[16.700342,40.2507045],[16.7002911,40.2505796]]]}},{"type":"Feature","id":"way/393277768","properties":{"type":"way","id":393277768,"tags":{"amenity":"place_of_worship","building":"yes","name":"Parrocchia San Giulio I, papa","religion":"christian"},"relations":[],"meta":{}},"geometry":{"type":"Polygon","coordinates":[[[16.7248053,40.2905498],[16.7247087,40.2902184],[16.7251459,40.2901509],[16.7252398,40.2904966],[16.7248053,40.2905498]]]}},{"type":"Feature","id":"node/3964837289","properties":{"type":"node","id":3964837289,"tags":{"amenity":"place_of_worship","denomination":"catholic","name":"Santi Medici Cosma e Damiano","religion":"christian"},"relations":[],"meta":{}},"geometry":{"type":"Point","coordinates":[16.6879041,40.2650738]}},{"type":"Feature","id":"node/4341072421","properties":{"type":"node","id":4341072421,"tags":{"addr:city":"Scanzano Jonico","addr:housenumber":"1","addr:postcode":"75020","addr:street":"Via Palmiro Togliatti","amenity":"place_of_worship","denomination":"catholic","name":"Parrocchia Maria Santissima Annunziata","religion":"christian","website":"http://www.parrocchiamariassannunziata.it/"},"relations":[],"meta":{}},"geometry":{"type":"Point","coordinates":[16.7004788,40.250521]}},{"type":"Feature","id":"node/4341075194","properties":{"type":"node","id":4341075194,"tags":{"addr:city":"scanzano Jonico","addr:postcode":"75020","addr:street":"napoli","amenity":"place_of_worship","denomination":"catholic","name":"San Giulio I , papa","religion":"christian"},"relations":[],"meta":{}},"geometry":{"type":"Point","coordinates":[16.724928,40.2902604]}},{"type":"Feature","id":"node/4341133219","properties":{"type":"node","id":4341133219,"tags":{"addr:city":"Scanzano Jonico","addr:postcode":"75020","amenity":"place_of_worship","denomination":"catholic","name":"Cappella palazzo baronale","religion":"christian"},"relations":[],"meta":{}},"geometry":{"type":"Point","coordinates":[16.7015027,40.2490328]}}]}
